NORAD_CAT_ID,OBJECT_NAME,OBJECT_TYPE,EPOCH,MEAN_MOTION,ECCENTRICITY,INCLINATION,RA_OF_ASC_NODE,ARG_OF_PERICENTER,MEAN_ANOMALY,BSTAR,MEAN_MOTION_DOT,MEAN_MOTION_DDOT,TLE_LINE0,TLE_LINE1,TLE_LINE2,SEMIMAJOR_AXIS,PERIOD,APOGEE,PERIGEE,DECAYED
50171.0,STARLINK-3286,PAYLOAD,2023-05-31 07:27:14,15.08849543,9.81e-05,53.2168,118.3515,83.9,276.2104,3.3447e-05,2.45e-06,0.0,0 STARLINK-3286,1 50171U 21125R   23151.31058581  .00000245  00000-0  33447-4 0  9994,2 50171  53.2168 118.3515 0000981  83.9000 276.2104 15.08849543 83126,6917.851,95.437,540.395,539.038,0.0
50171.0,STARLINK-3286,PAYLOAD,2023-05-31 15:24:10,15.08846029,0.0001007,53.2168,116.8647,88.4344,271.6763,-1.6802e-07,-2.9e-06,0.0,0 STARLINK-3286,1 50171U 21125R   23151.64178718 -.00000290  00000-0 -16802-6 0  9995,2 50171  53.2168 116.8647 0001007  88.4344 271.6763 15.08846029 83661,6917.862,95.437,540.424,539.03,0.0
50171.0,STARLINK-3286,PAYLOAD,2023-06-01 04:07:15,15.08848645,0.0001023,53.2169,114.486,87.1447,272.9662,-3.2273e-05,-8.01e-06,0.0,0 STARLINK-3286,1 50171U 21125R   23152.17170471 -.00000801  00000-0 -32273-4 0  9998,2 50171  53.2169 114.4860 0001023  87.1447 272.9662 15.08848645 83748,6917.854,95.437,540.427,539.011,0.0
50171.0,STARLINK-3286,PAYLOAD,2023-06-01 21:36:30,15.08836282,0.000112,53.2172,111.2146,96.4982,263.6138,-2.1936e-05,-6.37e-06,0.0,0 STARLINK-3286,1 50171U 21125R   23152.90035127 -.00000637  00000-0 -21936-4 0  9998,2 50171  53.2172 111.2146 0001120  96.4982 263.6138 15.08836282 83366,6917.892,95.438,540.532,538.982,0.0
50171.0,STARLINK-3286,PAYLOAD,2023-06-02 03:58:02,15.08852412,0.0001288,53.2166,110.0274,93.373,266.7409,-0.00023136,-3.969e-05,0.0,0 STARLINK-3286,1 50171U 21125R   23153.16530844 -.00003969  00000-0 -23136-3 0  9997,2 50171  53.2166 110.0274 0001288  93.3730 266.7409 15.08852412 83403,6917.842,95.437,540.598,538.816,0.0
50171.0,STARLINK-3286,PAYLOAD,2023-06-03 03:48:49,15.08838356,0.0001156,53.2166,105.5676,88.2076,271.9049,4.5234e-05,4.32e-06,0.0,0 STARLINK-3286,1 50171U 21125R   23154.15891049  .00000432  00000-0  45234-4 0  9998,2 50171  53.2166 105.5676 0001156  88.2076 271.9049 15.08838356 83553,6917.885,95.438,540.55,538.951,0.0
50171.0,STARLINK-3286,PAYLOAD,2023-06-04 02:04:14,15.08832329,0.0001189,53.2171,101.4035,83.5082,276.6046,4.0296e-05,3.53e-06,0.0,0 STARLINK-3286,1 50171U 21125R   23155.08627741  .00000353  00000-0  40296-4 0  9992,2 50171  53.2171 101.4035 0001189  83.5082 276.6046 15.08832329 83692,6917.904,95.438,540.591,538.946,0.0
50171.0,STARLINK-3286,PAYLOAD,2023-06-04 03:39:37,15.08834176,0.0001198,53.2172,101.1062,83.6832,276.4296,5.5428e-05,5.94e-06,0.0,0 STARLINK-3286,1 50171U 21125R   23155.15251610  .00000594  00000-0  55428-4 0  9998,2 50171  53.2172 101.1062 0001198  83.6832 276.4296 15.08834176 84197,6917.898,95.438,540.592,538.934,0.0
50171.0,STARLINK-3286,PAYLOAD,2023-06-05 03:30:24,15.08839364,0.0001303,53.2176,96.6483,100.2572,259.8567,3.0047e-05,1.9e-06,0.0,0 STARLINK-3286,1 50171U 21125R   23156.14611599  .00000190  00000-0  30047-4 0  9996,2 50171  53.2176  96.6483 0001303 100.2572 259.8567 15.08839364 83853,6917.882,95.438,540.649,538.846,0.0
50171.0,STARLINK-3286,PAYLOAD,2023-06-05 13:02:43,15.08841347,0.0001305,53.2176,94.8609,83.4907,276.6234,-1.56e-05,-5.36e-06,0.0,0 STARLINK-3286,1 50171U 21125R   23156.54355664 -.00000536  00000-0 -15600-4 0  9992,2 50171  53.2176  94.8609 0001305  83.4907 276.6234 15.08841347 84403,6917.876,95.437,540.644,538.838,0.0
50171.0,STARLINK-3286,PAYLOAD,2023-06-05 20:59:39,15.08834379,0.0001405,53.218,93.3741,82.1292,277.9859,2.2471e-05,7e-07,0.0,0 STARLINK-3286,1 50171U 21125R   23156.87476131  .00000070  00000-0  22471-4 0  9996,2 50171  53.2180  93.3741 0001405  82.1292 277.9859 15.08834379 84452,6917.898,95.438,540.735,538.791,0.0
50171.0,STARLINK-3286,PAYLOAD,2023-06-06 01:45:48,15.08836155,0.0001425,53.2183,92.4821,81.9196,278.1958,3.5622e-05,2.79e-06,0.0,0 STARLINK-3286,1 50171U 21125R   23157.07348044  .00000279  00000-0  35622-4 0  9993,2 50171  53.2183  92.4821 0001425  81.9196 278.1958 15.08836155 83991,6917.892,95.438,540.743,538.771,0.0
50171.0,STARLINK-3286,PAYLOAD,2023-06-06 19:15:03,15.08838482,0.0001429,53.2179,89.2107,80.5508,279.5646,6.4484e-06,-1.85e-06,0.0,0 STARLINK-3286,1 50171U 21125R   23157.80212166 -.00000185  00000-0  64484-5 0  9995,2 50171  53.2179  89.2107 0001429  80.5508 279.5646 15.08838482 84594,6917.885,95.438,540.739,538.761,0.0
50171.0,STARLINK-3286,PAYLOAD,2023-06-07 04:47:22,15.08804402,0.0001505,53.2177,87.4269,90.6876,269.4288,0.00054278,8.353e-05,0.0,0 STARLINK-3286,1 50171U 21125R   23158.19956354  .00008353  00000-0  54278-3 0  9994,2 50171  53.2177  87.4269 0001505  90.6876 269.4288 15.08804402 84164,6917.989,95.44,540.895,538.813,0.0
50171.0,STARLINK-3286,PAYLOAD,2023-06-07 19:05:50,15.08837316,0.0001266,53.2167,84.7505,83.7378,276.3759,4.014e-05,3.51e-06,0.0,0 STARLINK-3286,1 50171U 21125R   23158.79572025  .00000351  00000-0  40140-4 0  9993,2 50171  53.2167  84.7505 0001266  83.7378 276.3759 15.08837316 84250,6917.889,95.438,540.629,538.878,0.0
50171.0,STARLINK-3286,PAYLOAD,2023-06-08 01:27:22,15.08840618,0.0001122,53.2163,83.56,88.9406,271.1715,9.4043e-05,1.209e-05,0.0,0 STARLINK-3286,1 50171U 21125R   23159.06067612  .00001209  00000-0  94043-4 0  9999,2 50171  53.2163  83.5600 0001122  88.9406 271.1715 15.08840618 84781,6917.878,95.438,540.52,538.967,0.0
50171.0,STARLINK-3286,PAYLOAD,2023-06-08 23:42:47,15.08824645,0.000125,53.2176,79.3976,99.2518,260.8615,0.00018025,2.581e-05,0.0,0 STARLINK-3286,1 50171U 21125R   23159.98804528  .00002581  00000-0  18025-3 0  9994,2 50171  53.2176  79.3976 0001250  99.2518 260.8615 15.08824645 84433,6917.927,95.439,540.657,538.928,0.0
50171.0,STARLINK-3286,PAYLOAD,2023-06-09 04:28:55,15.08842409,0.0001348,53.2176,78.505,100.5921,259.5223,1.7324e-05,-1.2e-07,0.0,0 STARLINK-3286,1 50171U 21125R   23160.18675832 -.00000012  00000-0  17324-4 0  9992,2 50171  53.2176  78.5050 0001348 100.5921 259.5223 15.08842409 84460,6917.873,95.437,540.671,538.805,0.0
50171.0,STARLINK-3286,PAYLOAD,2023-06-10 10:41:15,15.08838323,0.0001124,53.218,72.8566,90.1826,269.9295,1.9183e-06,-2.57e-06,0.0,0 STARLINK-3286,1 50171U 21125R   23161.44532139 -.00000257  00000-0  19183-5 0  9991,2 50171  53.2180  72.8566 0001124  90.1826 269.9295 15.08838323 84659,6917.886,95.438,540.528,538.973,0.0
50171.0,STARLINK-3286,PAYLOAD,2023-06-10 20:13:35,15.08832912,0.0001203,53.2177,71.0739,91.1171,268.9959,-6.721e-05,-1.357e-05,0.0,0 STARLINK-3286,1 50171U 21125R   23161.84276994 -.00001357  00000-0 -67210-4 0  9995,2 50171  53.2177  71.0739 0001203  91.1171 268.9959 15.08832912 85206,6917.902,95.438,540.599,538.935,0.0
50171.0,STARLINK-3286,PAYLOAD,2023-06-11 10:32:03,15.08835498,0.0001137,53.2177,68.3964,88.9899,271.1224,-1.084e-05,-4.6e-06,0.0,0 STARLINK-3286,1 50171U 21125R   23162.43892697 -.00000460  00000-0 -10840-4 0  9996,2 50171  53.2177  68.3964 0001137  88.9899 271.1224 15.08835498 85294,6917.894,95.438,540.546,538.973,0.0
50171.0,STARLINK-3286,PAYLOAD,2023-06-11 16:53:35,15.08835066,0.000112,53.2177,67.207,89.76,270.352,2.6659e-05,1.36e-06,0.0,0 STARLINK-3286,1 50171U 21125R   23162.70388684  .00000136  00000-0  26659-4 0  9995,2 50171  53.2177  67.2070 0001120  89.7600 270.3520 15.08835066 84842,6917.895,95.438,540.535,538.986,0.0
50171.0,STARLINK-3286,PAYLOAD,2023-06-11 18:28:59,15.08839565,0.0001086,53.218,66.9096,85.3472,274.7644,-3.6609e-05,-8.7e-06,0.0,0 STARLINK-3286,1 50171U 21125R   23162.77012738 -.00000870  00000-0 -36609-4 0  9999,2 50171  53.2180  66.9096 0001086  85.3472 274.7644 15.08839565 85349,6917.882,95.438,540.498,538.995,0.0
50171.0,STARLINK-3286,PAYLOAD,2023-06-12 04:01:17,15.08837452,0.0001198,53.2174,65.1255,90.9028,269.2101,0.00017777,2.542e-05,0.0,0 STARLINK-3286,1 50171U 21125R   23163.16756082  .00002542  00000-0  17777-3 0  9990,2 50171  53.2174  65.1255 0001198  90.9028 269.2101 15.08837452 84915,6917.888,95.438,540.582,538.924,0.0
50171.0,STARLINK-3286,PAYLOAD,2023-06-12 10:22:49,15.08843811,9.68e-05,53.2182,63.9366,88.2354,271.8749,-3.3082e-06,-3.4e-06,0.0,0 STARLINK-3286,1 50171U 21125R   23163.43252198 -.00000340  00000-0 -33082-5 0  9994,2 50171  53.2182  63.9366 0000968  88.2354 271.8749 15.08843811 85441,6917.869,95.437,540.403,539.064,0.0
50171.0,STARLINK-3286,PAYLOAD,2023-06-12 23:05:55,15.08834801,0.0001317,53.218,61.5566,80.7376,279.3765,5.3556e-05,5.64e-06,0.0,0 STARLINK-3286,1 50171U 21125R   23163.96244872  .00000564  00000-0  53556-4 0  9995,2 50171  53.2180  61.5566 0001317  80.7376 279.3765 15.08834801 85030,6917.896,95.438,540.672,538.85,0.0
50171.0,STARLINK-3286,PAYLOAD,2023-06-13 00:41:18,15.0883641,0.0001311,53.2181,61.2593,79.9455,280.1685,6.608e-05,7.64e-06,0.0,0 STARLINK-3286,1 50171U 21125R   23164.02868749  .00000764  00000-0  66080-4 0  9996,2 50171  53.2181  61.2593 0001311  79.9455 280.1685 15.08836410 85534,6917.891,95.438,540.663,538.849,0.0
50171.0,STARLINK-3286,PAYLOAD,2023-06-14 02:07:28,15.08842135,0.0001336,53.2194,56.5029,87.8684,272.2461,3.2029e-05,2.22e-06,0.0,0 STARLINK-3286,1 50171U 21125R   23165.08852500  .00000222  00000-0  32029-4 0  9996,2 50171  53.2194  56.5029 0001336  87.8684 272.2461 15.08842135 85207,6917.874,95.437,540.663,538.815,0.0
50171.0,STARLINK-3286,PAYLOAD,2023-06-15 17:52:07,15.08839608,0.0001234,53.2183,49.0695,91.0817,269.0316,-3.4031e-05,-8.29e-06,0.0,0 STARLINK-3286,1 50171U 21125R   23166.74453003 -.00000829  00000-0 -34031-4 0  9995,2 50171  53.2183  49.0695 0001234  91.0817 269.0316 15.08839608 85454,6917.882,95.438,540.6,538.893,0.0
50171.0,STARLINK-3286,PAYLOAD,2023-06-16 01:49:02,15.08850458,0.000119,53.2186,47.5813,94.3904,265.7224,6.199e-05,6.99e-06,0.0,0 STARLINK-3286,1 50171U 21125R   23167.07571898  .00000699  00000-0  61990-4 0  9992,2 50171  53.2186  47.5813 0001190  94.3904 265.7224 15.08850458 85509,6917.848,95.437,540.537,538.89,0.0
